{
    "links": {
        "self": "http://www.neowsapp.com/rest/v1/neo/3485971?api_key=iIulBulltgU6a56xZRHN4H3l9WmuAYTsLGpBGhQ2"
    },
    "id": "3485971",
    "neo_reference_id": "3485971",
    "name": "(2010 BC)",
    "designation": "2010 BC",
    "nasa_jpl_url": "http://ssd.jpl.nasa.gov/sbdb.cgi?sstr=3485971",
    "absolute_magnitude_h": 22.2,
    "estimated_diameter": {
        "kilometers": {
            "estimated_diameter_min": 0.096506147,
            "estimated_diameter_max": 0.2157943048
        },
        "meters": {
            "estimated_diameter_min": 96.5061469579,
            "estimated_diameter_max": 215.7943048444
        },
        "miles": {
            "estimated_diameter_min": 0.059966121,
            "estimated_diameter_max": 0.134088323
        },
        "feet": {
            "estimated_diameter_min": 316.6212271853,
            "estimated_diameter_max": 707.9865871058
        }
    },
    "is_potentially_hazardous_asteroid": false,
    "close_approach_data": [
        {
            "close_approach_date": "1918-05-31",
            "close_approach_date_full": "1918-May-31 12:26",
            "epoch_date_close_approach": -1627990440000,
            "relative_velocity": {
                "kilometers_per_second": "16.3418507783",
                "kilometers_per_hour": "58830.6628019801",
                "miles_per_hour": "36555.0860060415"
            },
            "miss_distance": {
                "astronomical": "0.1793515152",
                "lunar": "69.7677394128",
                "kilometers": "26830604.655192624",
                "miles": "16671764.6527372512"
            },
            "orbiting_body": "Earth"
        },
        {
            "close_approach_date": "2010-01-24",
            "close_approach_date_full": "2010-Jan-24 09:04",
            "epoch_date_close_approach": 1264323840000,
            "relative_velocity": {
                "kilometers_per_second": "14.6424652388",
                "kilometers_per_hour": "52712.8748596285",
                "miles_per_hour": "32753.7304926397"
            },
            "miss_distance": {
                "astronomical": "0.0195942225",
                "lunar": "7.6221525525",
                "kilometers": "2931253.950306075",
                "miles": "1821396.745430835"
            },
            "orbiting_body": "Earth"
        }
    ],
    "orbital_data": {
        "orbit_id": "18",
        "orbit_determination_date": "2017-04-06 08:58:34",
        "first_observation_date": "2010-01-16",
        "last_observation_date": "2010-01-26",
        "data_arc_in_days": 10,
        "observations_used": 150,
        "orbit_uncertainty": "7",
        "minimum_orbit_intersection": ".0158979",
        "jupiter_tisserand_invariant": "3.677",
        "epoch_osculation": "2459000.5",
        "eccentricity": ".5686010433430784",
        "semi_major_axis": "1.936015578323508",
        "inclination": "9.566023186141981",
        "ascending_node_longitude": "120.9755527947043",
        "orbital_period": "983.9243266221278",
        "perihelion_distance": ".8351951005603081",
        "perihelion_argument": "60.57985196566874",
        "aphelion_distance": "3.036836056086708",
        "perihelion_time": "2459196.022932596438",
        "mean_anomaly": "288.4617182132645",
        "mean_motion": ".3658817962514475",
        "equinox": "J2000",
        "orbit_class": {
            "orbit_class_type": "APO",
            "orbit_class_description": "Near-Earth asteroid orbits which cross the Earth’s orbit similar to that of 1862 Apollo",
            "orbit_class_range": "a (semi-major axis) > 1.0 AU; q (perihelion) < 1.017 AU"
        }
    },
    "is_sentry_object": false
}